NORAD_CAT_ID,OBJECT_NAME,OBJECT_TYPE,EPOCH,MEAN_MOTION,ECCENTRICITY,INCLINATION,RA_OF_ASC_NODE,ARG_OF_PERICENTER,MEAN_ANOMALY,BSTAR,MEAN_MOTION_DOT,MEAN_MOTION_DDOT,TLE_LINE0,TLE_LINE1,TLE_LINE2,SEMIMAJOR_AXIS,PERIOD,APOGEE,PERIGEE,DECAYED
53937.0,STARLINK-4765,PAYLOAD,2023-07-03 12:23:57,15.08836255,7.5e-05,53.2186,14.2241,91.3906,268.7172,9.7735e-05,1.268e-05,0.0,0 STARLINK-4765,1 53937U 22119BD  23184.51664272  .00001268  00000-0  97735-4 0  9995,2 53937  53.2186  14.2241 0000750  91.3906 268.7172 15.08836255 43719,6917.892,95.438,540.276,539.238,0.0
53937.0,STARLINK-4765,PAYLOAD,2023-07-03 20:20:53,15.08845064,7.21e-05,53.2184,12.7372,86.138,273.9695,0.00010459,1.378e-05,0.0,0 STARLINK-4765,1 53937U 22119BD  23184.84783665  .00001378  00000-0  10459-3 0  9998,2 53937  53.2184  12.7372 0000721  86.1380 273.9695 15.08845064 43762,6917.865,95.437,540.229,539.231,0.0
53937.0,STARLINK-4765,PAYLOAD,2023-07-04 12:14:44,15.08841121,6.06e-05,53.2183,9.7645,80.0124,280.0936,5.4821e-05,5.85e-06,0.0,0 STARLINK-4765,1 53937U 22119BD  23185.51024024  .00000585  00000-0  54821-4 0  9991,2 53937  53.2183   9.7645 0000606  80.0124 280.0936 15.08841121 43869,6917.877,95.437,540.161,539.323,0.0
53937.0,STARLINK-4765,PAYLOAD,2023-07-04 23:22:26,15.0884837,7.17e-05,53.218,7.6817,94.0584,266.049,9.8219e-05,1.276e-05,0.0,0 STARLINK-4765,1 53937U 22119BD  23185.97391354  .00001276  00000-0  98219-4 0  9991,2 53937  53.2180   7.6817 0000717  94.0584 266.0490 15.08848370 43932,6917.855,95.437,540.216,539.224,0.0
53937.0,STARLINK-4765,PAYLOAD,2023-07-05 05:43:59,15.08837302,0.0001049,53.2178,6.4927,74.5289,285.5819,-4.6824e-05,-1.033e-05,0.0,0 STARLINK-4765,1 53937U 22119BD  23186.23888498 -.00001033  00000-0 -46824-4 0  9999,2 53937  53.2178   6.4927 0001049  74.5289 285.5819 15.08837302 43970,6917.889,95.438,540.479,539.028,0.0
53937.0,STARLINK-4765,PAYLOAD,2023-07-05 23:13:13,15.08841796,7.5e-05,53.2179,3.222,76.2331,283.8744,5.4858e-05,5.86e-06,0.0,0 STARLINK-4765,1 53937U 22119BD  23186.96752113  .00000586  00000-0  54858-4 0  9999,2 53937  53.2179   3.2220 0000750  76.2331 283.8744 15.08841796 44080,6917.875,95.437,540.259,539.221,0.0
53937.0,STARLINK-4765,PAYLOAD,2023-07-06 23:04:00,15.08852647,6.87e-05,53.2178,358.7611,72.8711,287.2356,0.00016104,2.277e-05,0.0,0 STARLINK-4765,1 53937U 22119BD  23187.96111392  .00002277  00000-0  16104-3 0  9998,2 53937  53.2178 358.7611 0000687  72.8711 287.2356 15.08852647 44235,6917.842,95.437,540.182,539.231,0.0
53937.0,STARLINK-4765,PAYLOAD,2023-07-07 18:08:38,15.0885271,7.3e-05,53.2175,355.193,70.3147,289.7924,0.00032447,4.882e-05,0.0,0 STARLINK-4765,1 53937U 22119BD  23188.75599910  .00004882  00000-0  32447-3 0  9994,2 53937  53.2175 355.1930 0000730  70.3147 289.7924 15.08852710 44354,6917.842,95.437,540.212,539.202,0.0
53937.0,STARLINK-4765,PAYLOAD,2023-07-08 03:40:57,15.08844214,7.37e-05,53.2171,353.409,65.2025,294.9043,0.00012043,1.63e-05,0.0,0 STARLINK-4765,1 53937U 22119BD  23189.15344111  .00001630  00000-0  12043-3 0  9998,2 53937  53.2171 353.4090 0000737  65.2025 294.9043 15.08844214 44410,6917.868,95.437,540.242,539.223,0.0
53937.0,STARLINK-4765,PAYLOAD,2023-07-09 03:31:44,15.08837313,6.21e-05,53.2173,348.95,86.3689,273.7374,-4.8992e-05,-1.067e-05,0.0,0 STARLINK-4765,1 53937U 22119BD  23190.14704168 -.00001067  00000-0 -48992-4 0  9990,2 53937  53.2173 348.9500 0000621  86.3689 273.7374 15.08837313 44569,6917.889,95.438,540.183,539.324,0.0
53937.0,STARLINK-4765,PAYLOAD,2023-07-10 17:40:59,15.08846711,6.18e-05,53.2175,341.8109,62.5045,297.601,0.00016943,2.41e-05,0.0,0 STARLINK-4765,1 53937U 22119BD  23191.73680252  .00002410  00000-0  16943-3 0  9994,2 53937  53.2175 341.8109 0000618  62.5045 297.6010 15.08846711 44807,6917.86,95.437,540.152,539.297,0.0
53937.0,STARLINK-4765,PAYLOAD,2023-07-11 19:07:10,15.08845009,7.27e-05,53.2177,337.0527,83.7527,276.3548,0.00014043,1.948e-05,0.0,0 STARLINK-4765,1 53937U 22119BD  23192.79664410  .00001948  00000-0  14043-3 0  9993,2 53937  53.2177 337.0527 0000727  83.7527 276.3548 15.08845009 44967,6917.865,95.437,540.233,539.227,0.0
53937.0,STARLINK-4765,PAYLOAD,2023-07-13 15:37:58,15.08836643,7e-05,53.2178,328.7281,94.8632,265.244,4.4385e-05,4.19e-06,0.0,0 STARLINK-4765,1 53937U 22119BD  23194.65136958  .00000419  00000-0  44385-4 0  9996,2 53937  53.2178 328.7281 0000700  94.8632 265.2440 15.08836643 45247,6917.891,95.438,540.24,539.271,0.0
53937.0,STARLINK-4765,PAYLOAD,2023-07-13 17:13:21,15.08843711,6.76e-05,53.2187,328.4305,93.5176,266.5894,-4.1114e-06,-3.53e-06,0.0,0 STARLINK-4765,1 53937U 22119BD  23194.71760615 -.00000353  00000-0 -41114-5 0  9993,2 53937  53.2187 328.4305 0000676  93.5176 266.5894 15.08843711 45254,6917.869,95.437,540.202,539.266,0.0
53937.0,STARLINK-4765,PAYLOAD,2023-07-15 01:01:02,15.08863952,8.37e-05,53.2177,322.4841,83.9631,276.1457,0.00047287,7.251e-05,0.0,0 STARLINK-4765,1 53937U 22119BD  23196.04239444  .00007251  00000-0  47287-3 0  9999,2 53937  53.2177 322.4841 0000837  83.9631 276.1457 15.08863952 45453,6917.807,95.436,540.251,539.093,0.0
53937.0,STARLINK-4765,PAYLOAD,2023-07-15 16:54:54,15.08849828,7.87e-05,53.2179,319.5094,76.9659,283.1421,0.00017551,2.507e-05,0.0,0 STARLINK-4765,1 53937U 22119BD  23196.70479941  .00002507  00000-0  17551-3 0  9990,2 53937  53.2179 319.5094 0000787  76.9659 283.1421 15.08849828 45554,6917.85,95.437,540.26,539.171,0.0
53937.0,STARLINK-4765,PAYLOAD,2023-07-16 18:21:05,15.08831689,7.24e-05,53.2175,314.7526,112.1007,248.0062,-0.00011483,-2.114e-05,0.0,0 STARLINK-4765,1 53937U 22119BD  23197.76465075 -.00002114  00000-0 -11483-3 0  9994,2 53937  53.2175 314.7526 0000724 112.1007 248.0062 15.08831689 45713,6917.906,95.438,540.272,539.27,0.0
53937.0,STARLINK-4765,PAYLOAD,2023-07-17 15:01:06,15.08867778,6.29e-05,53.217,310.8861,104.5114,255.5948,0.0016101,0.00025449,0.0,0 STARLINK-4765,1 53937U 22119BD  23198.62577221  .00025449  00000-0  16101-2 0  9992,2 53937  53.2170 310.8861 0000629 104.5114 255.5948 15.08867778 45843,6917.795,95.436,540.096,539.225,0.0
53937.0,STARLINK-4765,PAYLOAD,2023-07-18 06:54:58,15.08850809,0.0001127,53.2165,307.913,70.9977,289.1137,0.0010715,0.00016811,0.0,0 STARLINK-4765,1 53937U 22119BD  23199.28817337  .00016811  00000-0  10715-2 0  9998,2 53937  53.2165 307.9130 0001127  70.9977 289.1137 15.08850809 45941,6917.847,95.437,540.492,538.933,0.0
53937.0,STARLINK-4765,PAYLOAD,2023-07-19 06:45:45,15.0883953,9.8e-05,53.2169,303.4521,103.5751,256.535,0.0012472,0.00019617,0.0,0 STARLINK-4765,1 53937U 22119BD  23200.28177840  .00019617  00000-0  12472-2 0  9998,2 53937  53.2169 303.4521 0000980 103.5751 256.5350 15.08839530 46099,6917.882,95.438,540.425,539.069,0.0
53937.0,STARLINK-4765,PAYLOAD,2023-07-19 14:42:41,15.08824032,8.6e-05,53.2171,301.9637,125.4372,234.67,0.00075673,0.00011771,0.0,0 STARLINK-4765,1 53937U 22119BD  23200.61298258  .00011771  00000-0  75673-3 0  9998,2 53937  53.2171 301.9637 0000860 125.4372 234.6700 15.08824032 46145,6917.929,95.439,540.389,539.199,0.0
53937.0,STARLINK-4765,PAYLOAD,2023-07-21 06:27:19,15.0885267,9.23e-05,53.2165,294.5293,128.6913,231.4162,0.00045116,6.902e-05,0.0,0 STARLINK-4765,1 53937U 22119BD  23202.26898087  .00006902  00000-0  45116-3 0  9996,2 53937  53.2165 294.5293 0000923 128.6913 231.4162 15.08852670 46392,6917.842,95.437,540.345,539.068,0.0
53937.0,STARLINK-4765,PAYLOAD,2023-07-24 05:59:41,15.08842245,0.0001044,53.2155,281.1505,104.6231,255.4876,0.00018157,2.603e-05,0.0,0 STARLINK-4765,1 53937U 22119BD  23205.24978125  .00002603  00000-0  18157-3 0  9998,2 53937  53.2155 281.1505 0001044 104.6231 255.4876 15.08842245 47263,6917.874,95.437,540.461,539.016,0.0
53937.0,STARLINK-4765,PAYLOAD,2023-07-25 12:12:00,15.08840249,9.16e-05,53.2148,275.4997,89.681,270.4287,6.4866e-05,7.45e-06,0.0,0 STARLINK-4765,1 53937U 22119BD  23206.50834355  .00000745  00000-0  64866-4 0  9998,2 53937  53.2148 275.4997 0000916  89.6810 270.4287 15.08840249 47454,6917.88,95.438,540.378,539.111,0.0
53937.0,STARLINK-4765,PAYLOAD,2023-07-26 04:05:52,15.08836576,9.96e-05,53.2151,272.5261,86.64,273.4706,7.7472e-05,9.45e-06,0.0,0 STARLINK-4765,1 53937U 22119BD  23207.17074743  .00000945  00000-0  77472-4 0  9998,2 53937  53.2151 272.5261 0000996  86.6400 273.4706 15.08836576 47558,6917.891,95.438,540.445,539.067,0.0
53937.0,STARLINK-4765,PAYLOAD,2023-07-26 21:35:06,15.08846295,9.88e-05,53.2149,269.2549,88.4305,271.68,0.00020274,2.941e-05,0.0,0 STARLINK-4765,1 53937U 22119BD  23207.89938284  .00002941  00000-0  20274-3 0  9991,2 53937  53.2149 269.2549 0000988  88.4305 271.6800 15.08846295 47668,6917.861,95.437,540.41,539.043,0.0
53937.0,STARLINK-4765,PAYLOAD,2023-07-27 10:18:11,15.08845267,0.0001006,53.2153,266.8771,80.5329,279.5777,0.00021968,3.211e-05,0.0,0 STARLINK-4765,1 53937U 22119BD  23208.42930302  .00003211  00000-0  21968-3 0  9996,2 53937  53.2153 266.8771 0001006  80.5329 279.5777 15.08845267 47741,6917.864,95.437,540.425,539.033,0.0
53937.0,STARLINK-4765,PAYLOAD,2023-07-27 21:25:53,15.08840626,9.57e-05,53.2147,264.7946,90.7179,269.3923,0.00026971,4.007e-05,0.0,0 STARLINK-4765,1 53937U 22119BD  23208.89298474  .00004007  00000-0  26971-3 0  9997,2 53937  53.2147 264.7946 0000957  90.7179 269.3923 15.08840626 47817,6917.878,95.438,540.406,539.081,0.0
53937.0,STARLINK-4765,PAYLOAD,2023-07-28 06:58:13,15.08831095,0.0001241,53.2154,263.0138,67.8301,292.2823,-4.3353e-05,-9.78e-06,0.0,0 STARLINK-4765,1 53937U 22119BD  23209.29043079 -.00000978  00000-0 -43353-4 0  9990,2 53937  53.2154 263.0138 0001241  67.8301 292.2823 15.08831095 47453,6917.908,95.438,540.631,538.914,0.0
53937.0,STARLINK-4765,PAYLOAD,2023-07-28 13:19:45,15.08835458,0.0001239,53.2151,261.8215,74.237,285.8759,-3.5105e-05,-8.46e-06,0.0,0 STARLINK-4765,1 53937U 22119BD  23209.55539202 -.00000846  00000-0 -35105-4 0  9997,2 53937  53.2151 261.8215 0001239  74.2370 285.8759 15.08835458 47911,6917.894,95.438,540.616,538.902,0.0
